[
  {
    "OBJECT_NAME": "STARLINK-2609",
    "OBJECT_ID": "2021-038W",
    "EPOCH": "2024-05-20T19:00:28.662624",
    "MEAN_MOTION": 15.06377858,
    "ECCENTRICITY": 0.0001144,
    "INCLINATION": 53.0554,
    "RA_OF_ASC_NODE": 65.0326,
    "ARG_OF_PERICENTER": 95.1571,
    "MEAN_ANOMALY": 264.9548,
    "EPHEMERIS_TYPE": 0,
    "CLASSIFICATION_TYPE": "U",
    "NORAD_CAT_ID": 48373,
    "ELEMENT_SET_NO": 999,
    "REV_AT_EPOCH": 16859,
    "BSTAR": 0.00027784,
    "MEAN_MOTION_DOT": 3.857e-5,
    "MEAN_MOTION_DDOT": 0
  },
  {
    "OBJECT_NAME": "STARLINK-2604",
    "OBJECT_ID": "2021-038X",
    "EPOCH": "2024-05-20T18:07:27.796512",
    "MEAN_MOTION": 15.06400001,
    "ECCENTRICITY": 0.0001578,
    "INCLINATION": 53.0551,
    "RA_OF_ASC_NODE": 65.5443,
    "ARG_OF_PERICENTER": 85.0294,
    "MEAN_ANOMALY": 275.0876,
    "EPHEMERIS_TYPE": 0,
    "CLASSIFICATION_TYPE": "U",
    "NORAD_CAT_ID": 48374,
    "ELEMENT_SET_NO": 999,
    "REV_AT_EPOCH": 16858,
    "BSTAR": 0.00083697,
    "MEAN_MOTION_DOT": 0.00012207,
    "MEAN_MOTION_DDOT": 0
  },
  {
    "OBJECT_NAME": "STARLINK-2603",
    "OBJECT_ID": "2021-038Y",
    "EPOCH": "2024-05-20T18:49:50.928672",
    "MEAN_MOTION": 15.06381228,
    "ECCENTRICITY": 0.0001353,
    "INCLINATION": 53.0546,
    "RA_OF_ASC_NODE": 65.0615,
    "ARG_OF_PERICENTER": 116.4512,
    "MEAN_ANOMALY": 243.6616,
    "EPHEMERIS_TYPE": 0,
    "CLASSIFICATION_TYPE": "U",
    "NORAD_CAT_ID": 48375,
    "ELEMENT_SET_NO": 999,
    "REV_AT_EPOCH": 16859,
    "BSTAR": 0.00041176,
    "MEAN_MOTION_DOT": 5.854e-5,
    "MEAN_MOTION_DDOT": 0
  },
  {
    "OBJECT_NAME": "STARLINK-2610",
    "OBJECT_ID": "2021-038Z",
    "EPOCH": "2024-05-20T18:44:32.724384",
    "MEAN_MOTION": 15.06381167,
    "ECCENTRICITY": 0.0002197,
    "INCLINATION": 53.0534,
    "RA_OF_ASC_NODE": 65.0832,
    "ARG_OF_PERICENTER": 63.1629,
    "MEAN_ANOMALY": 296.9585,
    "EPHEMERIS_TYPE": 0,
    "CLASSIFICATION_TYPE": "U",
    "NORAD_CAT_ID": 48376,
    "ELEMENT_SET_NO": 999,
    "REV_AT_EPOCH": 16859,
    "BSTAR": 0.00052306,
    "MEAN_MOTION_DOT": 7.514e-5,
    "MEAN_MOTION_DDOT": 0
  },
  {
    "OBJECT_NAME": "STARLINK-2499",
    "OBJECT_ID": "2021-038AA",
    "EPOCH": "2024-05-20T19:28:35.652000",
    "MEAN_MOTION": 15.05565612,
    "ECCENTRICITY": 0.0001428,
    "INCLINATION": 53.0539,
    "RA_OF_ASC_NODE": 65.3013,
    "ARG_OF_PERICENTER": 86.5947,
    "MEAN_ANOMALY": 273.5204,
    "EPHEMERIS_TYPE": 0,
    "CLASSIFICATION_TYPE": "U",
    "NORAD_CAT_ID": 48377,
    "ELEMENT_SET_NO": 999,
    "REV_AT_EPOCH": 16859,
    "BSTAR": 9.5437e-5,
    "MEAN_MOTION_DOT": 1.111e-5,
    "MEAN_MOTION_DDOT": 0
  },
  {
    "OBJECT_NAME": "STARLINK-2526",
    "OBJECT_ID": "2021-038AB",
    "EPOCH": "2024-05-21T04:07:09.776352",
    "MEAN_MOTION": 15.06390452,
    "ECCENTRICITY": 0.0001559,
    "INCLINATION": 53.0542,
    "RA_OF_ASC_NODE": 63.327,
    "ARG_OF_PERICENTER": 72.1268,
    "MEAN_ANOMALY": 287.9891,
    "EPHEMERIS_TYPE": 0,
    "CLASSIFICATION_TYPE": "U",
    "NORAD_CAT_ID": 48378,
    "ELEMENT_SET_NO": 999,
    "REV_AT_EPOCH": 16865,
    "BSTAR": 0.0012725,
    "MEAN_MOTION_DOT": 0.00018718,
    "MEAN_MOTION_DDOT": 0
  },
  {
    "OBJECT_NAME": "STARLINK-2612",
    "OBJECT_ID": "2021-038AC",
    "EPOCH": "2024-05-20T18:28:37.589664",
    "MEAN_MOTION": 15.06397772,
    "ECCENTRICITY": 0.0002022,
    "INCLINATION": 53.0544,
    "RA_OF_ASC_NODE": 65.1349,
    "ARG_OF_PERICENTER": 97.2117,
    "MEAN_ANOMALY": 262.9102,
    "EPHEMERIS_TYPE": 0,
    "CLASSIFICATION_TYPE": "U",
    "NORAD_CAT_ID": 48379,
    "ELEMENT_SET_NO": 999,
    "REV_AT_EPOCH": 16859,
    "BSTAR": 0.00039225,
    "MEAN_MOTION_DOT": 5.565e-5,
    "MEAN_MOTION_DDOT": 0
  },
  {
    "OBJECT_NAME": "STARLINK-2614",
    "OBJECT_ID": "2021-038AD",
    "EPOCH": "2024-05-21T04:12:34.329312",
    "MEAN_MOTION": 15.06406881,
    "ECCENTRICITY": 0.0001423,
    "INCLINATION": 53.0532,
    "RA_OF_ASC_NODE": 63.8222,
    "ARG_OF_PERICENTER": 110.2023,
    "MEAN_ANOMALY": 249.9119,
    "EPHEMERIS_TYPE": 0,
    "CLASSIFICATION_TYPE": "U",
    "NORAD_CAT_ID": 48380,
    "ELEMENT_SET_NO": 999,
    "REV_AT_EPOCH": 16864,
    "BSTAR": 0.0013951,
    "MEAN_MOTION_DOT": 0.00020563,
    "MEAN_MOTION_DDOT": 0
  },
  {
    "OBJECT_NAME": "STARLINK-2630",
    "OBJECT_ID": "2021-038AE",
    "EPOCH": "2024-05-21T03:56:33.243360",
    "MEAN_MOTION": 15.06383114,
    "ECCENTRICITY": 0.0001334,
    "INCLINATION": 53.0537,
    "RA_OF_ASC_NODE": 63.3615,
    "ARG_OF_PERICENTER": 85.9397,
    "MEAN_ANOMALY": 274.1745,
    "EPHEMERIS_TYPE": 0,
    "CLASSIFICATION_TYPE": "U",
    "NORAD_CAT_ID": 48381,
    "ELEMENT_SET_NO": 999,
    "REV_AT_EPOCH": 16865,
    "BSTAR": 2.8756e-5,
    "MEAN_MOTION_DOT": 1.47e-6,
    "MEAN_MOTION_DDOT": 0
  },
  {
    "OBJECT_NAME": "STARLINK-2585",
    "OBJECT_ID": "2021-038AF",
    "EPOCH": "2024-05-20T18:18:00.154656",
    "MEAN_MOTION": 15.06385624,
    "ECCENTRICITY": 0.000154,
    "INCLINATION": 53.0541,
    "RA_OF_ASC_NODE": 65.169,
    "ARG_OF_PERICENTER": 91.9576,
    "MEAN_ANOMALY": 268.1589,
    "EPHEMERIS_TYPE": 0,
    "CLASSIFICATION_TYPE": "U",
    "NORAD_CAT_ID": 48382,
    "ELEMENT_SET_NO": 999,
    "REV_AT_EPOCH": 16859,
    "BSTAR": -1.2188e-5,
    "MEAN_MOTION_DOT": -4.63e-6,
    "MEAN_MOTION_DDOT": 0
  },
  {
    "OBJECT_NAME": "STARLINK-2599",
    "OBJECT_ID": "2021-038AG",
    "EPOCH": "2024-05-20T23:14:08.785536",
    "MEAN_MOTION": 15.69731132,
    "ECCENTRICITY": 0.0001355,
    "INCLINATION": 53.0531,
    "RA_OF_ASC_NODE": 34.4285,
    "ARG_OF_PERICENTER": 90.0639,
    "MEAN_ANOMALY": 270.0533,
    "EPHEMERIS_TYPE": 0,
    "CLASSIFICATION_TYPE": "U",
    "NORAD_CAT_ID": 48383,
    "ELEMENT_SET_NO": 999,
    "REV_AT_EPOCH": 16902,
    "BSTAR": 6.8528e-5,
    "MEAN_MOTION_DOT": 7.728e-5,
    "MEAN_MOTION_DDOT": 0
  },
  {
    "OBJECT_NAME": "STARLINK-2598",
    "OBJECT_ID": "2021-038AJ",
    "EPOCH": "2024-05-20T19:37:36.880608",
    "MEAN_MOTION": 15.06388839,
    "ECCENTRICITY": 0.0001664,
    "INCLINATION": 53.0555,
    "RA_OF_ASC_NODE": 64.9119,
    "ARG_OF_PERICENTER": 75.5706,
    "MEAN_ANOMALY": 284.5468,
    "EPHEMERIS_TYPE": 0,
    "CLASSIFICATION_TYPE": "U",
    "NORAD_CAT_ID": 48385,
    "ELEMENT_SET_NO": 999,
    "REV_AT_EPOCH": 16859,
    "BSTAR": 5.6574e-5,
    "MEAN_MOTION_DOT": 5.61e-6,
    "MEAN_MOTION_DDOT": 0
  },
  {
    "OBJECT_NAME": "STARLINK-2606",
    "OBJECT_ID": "2021-038AK",
    "EPOCH": "2024-05-21T00:06:19.733184",
    "MEAN_MOTION": 15.06392688,
    "ECCENTRICITY": 0.0001687,
    "INCLINATION": 53.0553,
    "RA_OF_ASC_NODE": 59.087,
    "ARG_OF_PERICENTER": 114.5889,
    "MEAN_ANOMALY": 245.5276,
    "EPHEMERIS_TYPE": 0,
    "CLASSIFICATION_TYPE": "U",
    "NORAD_CAT_ID": 48386,
    "ELEMENT_SET_NO": 999,
    "REV_AT_EPOCH": 16869,
    "BSTAR": 0.00017896,
    "MEAN_MOTION_DOT": 2.385e-5,
    "MEAN_MOTION_DDOT": 0
  },
  {
    "OBJECT_NAME": "STARLINK-2600",
    "OBJECT_ID": "2021-038AL",
    "EPOCH": "2024-05-20T18:26:37.094496",
    "MEAN_MOTION": 15.06382403,
    "ECCENTRICITY": 0.0001729,
    "INCLINATION": 53.0539,
    "RA_OF_ASC_NODE": 60.1072,
    "ARG_OF_PERICENTER": 106.214,
    "MEAN_ANOMALY": 253.904,
    "EPHEMERIS_TYPE": 0,
    "CLASSIFICATION_TYPE": "U",
    "NORAD_CAT_ID": 48387,
    "ELEMENT_SET_NO": 999,
    "REV_AT_EPOCH": 16866,
    "BSTAR": 0.00025479,
    "MEAN_MOTION_DOT": 3.514e-5,
    "MEAN_MOTION_DDOT": 0
  }
]