STARLINK-2609           
1 48373U 21038W   24141.79199841  .00003857  00000+0  27784-3 0  9992
2 48373  53.0554  65.0326 0001144  95.1571 264.9548 15.06377858168596
STARLINK-2604           
1 48374U 21038X   24141.75518283  .00012207  00000+0  83697-3 0  9998
2 48374  53.0551  65.5443 0001578  85.0294 275.0876 15.06400001168583
STARLINK-2603           
1 48375U 21038Y   24141.78461723  .00005854  00000+0  41176-3 0  9994
2 48375  53.0546  65.0615 0001353 116.4512 243.6616 15.06381228168590
STARLINK-2610           
1 48376U 21038Z   24141.78093431  .00007514  00000+0  52306-3 0  9994
2 48376  53.0534  65.0832 0002197  63.1629 296.9585 15.06381167168591
STARLINK-2499           
1 48377U 21038AA  24141.81152375  .00001111  00000+0  95437-4 0  9992
2 48377  53.0539  65.3013 0001428  86.5947 273.5204 15.05565612168596
STARLINK-2526           
1 48378U 21038AB  24142.17164093  .00018718  00000+0  12725-2 0  9991
2 48378  53.0542  63.3270 0001559  72.1268 287.9891 15.06390452168653
STARLINK-2612           
1 48379U 21038AC  24141.76987951  .00005565  00000+0  39225-3 0  9993
2 48379  53.0544  65.1349 0002022  97.2117 262.9102 15.06397772168593
STARLINK-2614           
1 48380U 21038AD  24142.17539733  .00020563  00000+0  13951-2 0  9994
2 48380  53.0532  63.8222 0001423 110.2023 249.9119 15.06406881168644
STARLINK-2630           
1 48381U 21038AE  24142.16427365  .00000147  00000+0  28756-4 0  9998
2 48381  53.0537  63.3615 0001334  85.9397 274.1745 15.06383114168653
STARLINK-2585           
1 48382U 21038AF  24141.76250179 -.00000463  00000+0 -12188-4 0  9996
2 48382  53.0541  65.1690 0001540  91.9576 268.1589 15.06385624168597
STARLINK-2599           
1 48383U 21038AG  24141.96815724  .00007728  00000+0  68528-4 0  9990
2 48383  53.0531  34.4285 0001355  90.0639 270.0533 15.69731132169028
STARLINK-2598           
1 48385U 21038AJ  24141.81778797  .00000561  00000+0  56574-4 0  9990
2 48385  53.0555  64.9119 0001664  75.5706 284.5468 15.06388839168597
STARLINK-2606           
1 48386U 21038AK  24142.00439506  .00002385  00000+0  17896-3 0  9994
2 48386  53.0553  59.0870 0001687 114.5889 245.5276 15.06392688168698
STARLINK-2600           
1 48387U 21038AL  24141.76848489  .00003514  00000+0  25479-3 0  9992
2 48387  53.0539  60.1072 0001729 106.2140 253.9040 15.06382403168668
